ONEWEB-0306             
1 49188U 21083C   24114.12541550  .00000025  00000+0  31526-4 0  9996
2 49188  87.9128 131.7211 0002053  96.5791 263.5575 13.18688725127833
ONEWEB-0307             
1 49189U 21083D   24114.52952205  .00000321  00000+0  84361-3 0  9997
2 49189  87.8895 116.4512 0002285  98.1275 262.0114 13.13469029129216
ONEWEB-0320             
1 49190U 21083E   24114.51112086 -.00000537  00000+0 -13955-2 0  9994
2 49190  87.9130 131.6685 0002064  94.4296 265.7072 13.18689732127848
ONEWEB-0321             
1 49191U 21083F   24114.43635153  .00000050  00000+0  90114-4 0  9993
2 49191  87.9186  70.5836 0001881  92.0106 268.1243 13.20772161134521
ONEWEB-0322             
1 49192U 21083G   24114.06848855  .00000422  00000+0  11198-2 0  9994
2 49192  87.8895 116.5322 0002040 105.0615 255.0740 13.13469472129146
ONEWEB-0324             
1 49193U 21083H   24114.49687571  .00002127  00000+0  53598-2 0  9992
2 49193  87.9128 131.6526 0002394  89.7716 270.3690 13.18705039127861
ONEWEB-0325             
1 49194U 21083J   24114.12227391  .00002723  00000+0  68723-2 0  9991
2 49194  87.9130 131.7411 0002025  96.6754 263.4609 13.18675514127822
ONEWEB-0326             
1 49195U 21083K   24113.60535036  .00000039  00000+0  65418-4 0  9990
2 49195  87.9128 131.8438 0002343  76.1213 284.0179 13.18684541126466
