<?xml version="1.0" encoding="UTF-8"?>
<ndm xmlns:xsi="http://www.w3.org/2001/XMLSchema-instance" xsi:noNamespaceSchemaLocation="https://sanaregistry.org/r/ndmxml_unqualified/ndmxml-2.0.0-master-2.0.xsd">
<omm id="CCSDS_OMM_VERS" version="2.0">
<header><CREATION_DATE/><ORIGINATOR/></header><body><segment><metadata><OBJECT_NAME>ONEWEB-0306</OBJECT_NAME><OBJECT_ID>2021-083C</OBJECT_ID><CENTER_NAME>EARTH</CENTER_NAME><REF_FRAME>TEME</REF_FRAME><TIME_SYSTEM>UTC</TIME_SYSTEM><MEAN_ELEMENT_THEORY>SGP4</MEAN_ELEMENT_THEORY></metadata><data><meanElements><EPOCH>2024-04-23T03:00:35.899200</EPOCH><MEAN_MOTION>13.18688725</MEAN_MOTION><ECCENTRICITY>.0002053</ECCENTRICITY><INCLINATION>87.9128</INCLINATION><RA_OF_ASC_NODE>131.7211</RA_OF_ASC_NODE><ARG_OF_PERICENTER>96.5791</ARG_OF_PERICENTER><MEAN_ANOMALY>263.5575</MEAN_ANOMALY></meanElements><tleParameters><EPHEMERIS_TYPE>0</EPHEMERIS_TYPE><CLASSIFICATION_TYPE>U</CLASSIFICATION_TYPE><NORAD_CAT_ID>49188</NORAD_CAT_ID><ELEMENT_SET_NO>999</ELEMENT_SET_NO><REV_AT_EPOCH>12783</REV_AT_EPOCH><BSTAR>.31526E-4</BSTAR><MEAN_MOTION_DOT>.25E-6</MEAN_MOTION_DOT><MEAN_MOTION_DDOT>0</MEAN_MOTION_DDOT></tleParameters></data></segment></body></omm>
<omm id="CCSDS_OMM_VERS" version="2.0">
<header><CREATION_DATE/><ORIGINATOR/></header><body><segment><metadata><OBJECT_NAME>ONEWEB-0307</OBJECT_NAME><OBJECT_ID>2021-083D</OBJECT_ID><CENTER_NAME>EARTH</CENTER_NAME><REF_FRAME>TEME</REF_FRAME><TIME_SYSTEM>UTC</TIME_SYSTEM><MEAN_ELEMENT_THEORY>SGP4</MEAN_ELEMENT_THEORY></metadata><data><meanElements><EPOCH>2024-04-23T12:42:30.705120</EPOCH><MEAN_MOTION>13.13469029</MEAN_MOTION><ECCENTRICITY>.0002285</ECCENTRICITY><INCLINATION>87.8895</INCLINATION><RA_OF_ASC_NODE>116.4512</RA_OF_ASC_NODE><ARG_OF_PERICENTER>98.1275</ARG_OF_PERICENTER><MEAN_ANOMALY>262.0114</MEAN_ANOMALY></meanElements><tleParameters><EPHEMERIS_TYPE>0</EPHEMERIS_TYPE><CLASSIFICATION_TYPE>U</CLASSIFICATION_TYPE><NORAD_CAT_ID>49189</NORAD_CAT_ID><ELEMENT_SET_NO>999</ELEMENT_SET_NO><REV_AT_EPOCH>12921</REV_AT_EPOCH><BSTAR>.84361E-3</BSTAR><MEAN_MOTION_DOT>.321E-5</MEAN_MOTION_DOT><MEAN_MOTION_DDOT>0</MEAN_MOTION_DDOT></tleParameters></data></segment></body></omm>
<omm id="CCSDS_OMM_VERS" version="2.0">
<header><CREATION_DATE/><ORIGINATOR/></header><body><segment><metadata><OBJECT_NAME>ONEWEB-0320</OBJECT_NAME><OBJECT_ID>2021-083E</OBJECT_ID><CENTER_NAME>EARTH</CENTER_NAME><REF_FRAME>TEME</REF_FRAME><TIME_SYSTEM>UTC</TIME_SYSTEM><MEAN_ELEMENT_THEORY>SGP4</MEAN_ELEMENT_THEORY></metadata><data><meanElements><EPOCH>2024-04-23T12:16:00.842304</EPOCH><MEAN_MOTION>13.18689732</MEAN_MOTION><ECCENTRICITY>.0002064</ECCENTRICITY><INCLINATION>87.9130</INCLINATION><RA_OF_ASC_NODE>131.6685</RA_OF_ASC_NODE><ARG_OF_PERICENTER>94.4296</ARG_OF_PERICENTER><MEAN_ANOMALY>265.7072</MEAN_ANOMALY></meanElements><tleParameters><EPHEMERIS_TYPE>0</EPHEMERIS_TYPE><CLASSIFICATION_TYPE>U</CLASSIFICATION_TYPE><NORAD_CAT_ID>49190</NORAD_CAT_ID><ELEMENT_SET_NO>999</ELEMENT_SET_NO><REV_AT_EPOCH>12784</REV_AT_EPOCH><BSTAR>-.13955E-2</BSTAR><MEAN_MOTION_DOT>-.537E-5</MEAN_MOTION_DOT><MEAN_MOTION_DDOT>0</MEAN_MOTION_DDOT></tleParameters></data></segment></body></omm>
<omm id="CCSDS_OMM_VERS" version="2.0">
<header><CREATION_DATE/><ORIGINATOR/></header><body><segment><metadata><OBJECT_NAME>ONEWEB-0321</OBJECT_NAME><OBJECT_ID>2021-083F</OBJECT_ID><CENTER_NAME>EARTH</CENTER_NAME><REF_FRAME>TEME</REF_FRAME><TIME_SYSTEM>UTC</TIME_SYSTEM><MEAN_ELEMENT_THEORY>SGP4</MEAN_ELEMENT_THEORY></metadata><data><meanElements><EPOCH>2024-04-23T10:28:20.772192</EPOCH><MEAN_MOTION>13.20772161</MEAN_MOTION><ECCENTRICITY>.0001881</ECCENTRICITY><INCLINATION>87.9186</INCLINATION><RA_OF_ASC_NODE>70.5836</RA_OF_ASC_NODE><ARG_OF_PERICENTER>92.0106</ARG_OF_PERICENTER><MEAN_ANOMALY>268.1243</MEAN_ANOMALY></meanElements><tleParameters><EPHEMERIS_TYPE>0</EPHEMERIS_TYPE><CLASSIFICATION_TYPE>U</CLASSIFICATION_TYPE><NORAD_CAT_ID>49191</NORAD_CAT_ID><ELEMENT_SET_NO>999</ELEMENT_SET_NO><REV_AT_EPOCH>13452</REV_AT_EPOCH><BSTAR>.90114E-4</BSTAR><MEAN_MOTION_DOT>.5E-6</MEAN_MOTION_DOT><MEAN_MOTION_DDOT>0</MEAN_MOTION_DDOT></tleParameters></data></segment></body></omm>
<omm id="CCSDS_OMM_VERS" version="2.0">
<header><CREATION_DATE/><ORIGINATOR/></header><body><segment><metadata><OBJECT_NAME>ONEWEB-0322</OBJECT_NAME><OBJECT_ID>2021-083G</OBJECT_ID><CENTER_NAME>EARTH</CENTER_NAME><REF_FRAME>TEME</REF_FRAME><TIME_SYSTEM>UTC</TIME_SYSTEM><MEAN_ELEMENT_THEORY>SGP4</MEAN_ELEMENT_THEORY></metadata><data><meanElements><EPOCH>2024-04-23T01:38:37.410720</EPOCH><MEAN_MOTION>13.13469472</MEAN_MOTION><ECCENTRICITY>.000204</ECCENTRICITY><INCLINATION>87.8895</INCLINATION><RA_OF_ASC_NODE>116.5322</RA_OF_ASC_NODE><ARG_OF_PERICENTER>105.0615</ARG_OF_PERICENTER><MEAN_ANOMALY>255.0740</MEAN_ANOMALY></meanElements><tleParameters><EPHEMERIS_TYPE>0</EPHEMERIS_TYPE><CLASSIFICATION_TYPE>U</CLASSIFICATION_TYPE><NORAD_CAT_ID>49192</NORAD_CAT_ID><ELEMENT_SET_NO>999</ELEMENT_SET_NO><REV_AT_EPOCH>12914</REV_AT_EPOCH><BSTAR>.11198E-2</BSTAR><MEAN_MOTION_DOT>.422E-5</MEAN_MOTION_DOT><MEAN_MOTION_DDOT>0</MEAN_MOTION_DDOT></tleParameters></data></segment></body></omm>
<omm id="CCSDS_OMM_VERS" version="2.0">
<header><CREATION_DATE/><ORIGINATOR/></header><body><segment><metadata><OBJECT_NAME>ONEWEB-0324</OBJECT_NAME><OBJECT_ID>2021-083H</OBJECT_ID><CENTER_NAME>EARTH</CENTER_NAME><REF_FRAME>TEME</REF_FRAME><TIME_SYSTEM>UTC</TIME_SYSTEM><MEAN_ELEMENT_THEORY>SGP4</MEAN_ELEMENT_THEORY></metadata><data><meanElements><EPOCH>2024-04-23T11:55:30.061344</EPOCH><MEAN_MOTION>13.18705039</MEAN_MOTION><ECCENTRICITY>.0002394</ECCENTRICITY><INCLINATION>87.9128</INCLINATION><RA_OF_ASC_NODE>131.6526</RA_OF_ASC_NODE><ARG_OF_PERICENTER>89.7716</ARG_OF_PERICENTER><MEAN_ANOMALY>270.3690</MEAN_ANOMALY></meanElements><tleParameters><EPHEMERIS_TYPE>0</EPHEMERIS_TYPE><CLASSIFICATION_TYPE>U</CLASSIFICATION_TYPE><NORAD_CAT_ID>49193</NORAD_CAT_ID><ELEMENT_SET_NO>999</ELEMENT_SET_NO><REV_AT_EPOCH>12786</REV_AT_EPOCH><BSTAR>.53598E-2</BSTAR><MEAN_MOTION_DOT>.2127E-4</MEAN_MOTION_DOT><MEAN_MOTION_DDOT>0</MEAN_MOTION_DDOT></tleParameters></data></segment></body></omm>
<omm id="CCSDS_OMM_VERS" version="2.0">
<header><CREATION_DATE/><ORIGINATOR/></header><body><segment><metadata><OBJECT_NAME>ONEWEB-0325</OBJECT_NAME><OBJECT_ID>2021-083J</OBJECT_ID><CENTER_NAME>EARTH</CENTER_NAME><REF_FRAME>TEME</REF_FRAME><TIME_SYSTEM>UTC</TIME_SYSTEM><MEAN_ELEMENT_THEORY>SGP4</MEAN_ELEMENT_THEORY></metadata><data><meanElements><EPOCH>2024-04-23T02:56:04.465824</EPOCH><MEAN_MOTION>13.18675514</MEAN_MOTION><ECCENTRICITY>.0002025</ECCENTRICITY><INCLINATION>87.9130</INCLINATION><RA_OF_ASC_NODE>131.7411</RA_OF_ASC_NODE><ARG_OF_PERICENTER>96.6754</ARG_OF_PERICENTER><MEAN_ANOMALY>263.4609</MEAN_ANOMALY></meanElements><tleParameters><EPHEMERIS_TYPE>0</EPHEMERIS_TYPE><CLASSIFICATION_TYPE>U</CLASSIFICATION_TYPE><NORAD_CAT_ID>49194</NORAD_CAT_ID><ELEMENT_SET_NO>999</ELEMENT_SET_NO><REV_AT_EPOCH>12782</REV_AT_EPOCH><BSTAR>.68723E-2</BSTAR><MEAN_MOTION_DOT>.2723E-4</MEAN_MOTION_DOT><MEAN_MOTION_DDOT>0</MEAN_MOTION_DDOT></tleParameters></data></segment></body></omm>
<omm id="CCSDS_OMM_VERS" version="2.0">
<header><CREATION_DATE/><ORIGINATOR/></header><body><segment><metadata><OBJECT_NAME>ONEWEB-0326</OBJECT_NAME><OBJECT_ID>2021-083K</OBJECT_ID><CENTER_NAME>EARTH</CENTER_NAME><REF_FRAME>TEME</REF_FRAME><TIME_SYSTEM>UTC</TIME_SYSTEM><MEAN_ELEMENT_THEORY>SGP4</MEAN_ELEMENT_THEORY></metadata><data><meanElements><EPOCH>2024-04-22T14:31:42.271104</EPOCH><MEAN_MOTION>13.18684541</MEAN_MOTION><ECCENTRICITY>.0002343</ECCENTRICITY><INCLINATION>87.9128</INCLINATION><RA_OF_ASC_NODE>131.8438</RA_OF_ASC_NODE><ARG_OF_PERICENTER>76.1213</ARG_OF_PERICENTER><MEAN_ANOMALY>284.0179</MEAN_ANOMALY></meanElements><tleParameters><EPHEMERIS_TYPE>0</EPHEMERIS_TYPE><CLASSIFICATION_TYPE>U</CLASSIFICATION_TYPE><NORAD_CAT_ID>49195</NORAD_CAT_ID><ELEMENT_SET_NO>999</ELEMENT_SET_NO><REV_AT_EPOCH>12646</REV_AT_EPOCH><BSTAR>.65418E-4</BSTAR><MEAN_MOTION_DOT>.39E-6</MEAN_MOTION_DOT><MEAN_MOTION_DDOT>0</MEAN_MOTION_DDOT></tleParameters></data></segment></body></omm>

</ndm>
